NORAD_CAT_ID,OBJECT_NAME,OBJECT_TYPE,EPOCH,MEAN_MOTION,ECCENTRICITY,INCLINATION,RA_OF_ASC_NODE,ARG_OF_PERICENTER,MEAN_ANOMALY,BSTAR,MEAN_MOTION_DOT,MEAN_MOTION_DDOT,TLE_LINE0,TLE_LINE1,TLE_LINE2,SEMIMAJOR_AXIS,PERIOD,APOGEE,PERIGEE,DECAYED
49141.0,STARLINK-3093,PAYLOAD,2023-01-18 04:07:13,14.98344198,0.0003005,70.0026,305.2324,267.7663,92.3152,0.0022159,0.00026457,0.0,0 STARLINK-3093,1 49141U 21082M   23018.17167863  .00026457  00000-0  22159-2 0  9990,2 49141  70.0026 305.2324 0003005 267.7663  92.3152 14.98344198 75443,6950.149,96.106,574.1030000000001,569.925,0.0
49141.0,STARLINK-3093,PAYLOAD,2023-01-18 12:07:53,14.98346032,0.0002771999999999,70.0033,304.3911,275.1835,84.9008,0.0014428,0.00017171,0.0,0 STARLINK-3093,1 49141U 21082M   23018.50547807  .00017171  00000-0  14428-2 0  9990,2 49141  70.0033 304.3911 0002772 275.1835  84.9008 14.98346032 75498,6950.143,96.106,573.935,570.082,0.0
49141.0,STARLINK-3093,PAYLOAD,2023-01-18 21:44:41,14.98350529,0.0002779,70.0034,303.3817,274.5432,85.541,0.00099221,0.00011772,0.0,0 STARLINK-3093,1 49141U 21082M   23018.90603409  .00011772  00000-0  99221-3 0  9991,2 49141  70.0034 303.3817 0002779 274.5432  85.5410 14.98350529 75553,6950.129,96.106,573.9259999999999,570.063,0.0
49141.0,STARLINK-3093,PAYLOAD,2023-01-19 05:45:21,14.98362108,0.0002718,70.0036,302.5401,273.816,86.2689,0.0010995999999999,0.00013062,0.0,0 STARLINK-3093,1 49141U 21082M   23019.23982726  .00013062  00000-0  10996-2 0  9995,2 49141  70.0036 302.5401 0002718 273.8160  86.2689 14.98362108 75606,6950.094,96.105,573.8480000000001,570.07,0.0
49141.0,STARLINK-3093,PAYLOAD,2023-01-19 12:09:54,14.98326853,6.74e-05,70.0051,301.8647,300.7478,59.3615,-0.00030211,-3.695e-05,0.0,0 STARLINK-3093,1 49141U 21082M   23019.50688189 -.00003695  00000-0 -30211-3 0  9997,2 49141  70.0051 301.8647 0000674 300.7478  59.3615 14.98326853 75649,6950.203,96.107,572.536,571.599,0.0
49141.0,STARLINK-3093,PAYLOAD,2023-01-19 18:34:26,14.983281699999996,0.0002404,70.0037,301.194,270.5198,89.5686,-0.00019677,-2.44e-05,0.0,0 STARLINK-3093,1 49141U 21082M   23019.77391493 -.00002440  00000-0 -19677-3 0  9995,2 49141  70.0037 301.1940 0002404 270.5198  89.5686 14.98328170 75689,6950.1990000000005,96.107,573.734,570.393,0.0
49141.0,STARLINK-3093,PAYLOAD,2023-01-20 00:58:58,14.98326135,0.0002722,70.0036,300.5197,266.3113,93.7735,9.3209e-05,1.019e-05,0.0,0 STARLINK-3093,1 49141U 21082M   23020.04095615  .00001019  00000-0  93209-4 0  9997,2 49141  70.0036 300.5197 0002722 266.3113  93.7735 14.98326135 75724,6950.205,96.107,573.962,570.178,0.0
49141.0,STARLINK-3093,PAYLOAD,2023-01-20 21:48:43,14.98340364,0.0002923,70.0031,298.331,262.9075,97.1752,0.0013367,0.00015897,0.0,0 STARLINK-3093,1 49141U 21082M   23020.90884001  .00015897  00000-0  13367-2 0  9991,2 49141  70.0031 298.3310 0002923 262.9075  97.1752 14.98340364 75853,6950.161,96.106,574.057,569.994,0.0
49141.0,STARLINK-3093,PAYLOAD,2023-01-22 04:15:16,14.98346704,0.0002645,70.0039,295.1335,266.6248,93.4608,0.00047922,5.632e-05,0.0,0 STARLINK-3093,1 49141U 21082M   23022.17727166  .00005632  00000-0  47922-3 0  9991,2 49141  70.0039 295.1335 0002645 266.6248  93.4608 14.98346704 76042,6950.141,96.106,573.845,570.168,0.0
49141.0,STARLINK-3093,PAYLOAD,2023-01-23 04:17:17,14.98333737,0.0002806,70.0023,292.6077,277.1906,82.8934,7.0203e-05,7.45e-06,0.0,0 STARLINK-3093,1 49141U 21082M   23023.17867498  .00000745  00000-0  70203-4 0  9994,2 49141  70.0023 292.6077 0002806 277.1906  82.8934 14.98333737 76199,6950.181,96.107,573.997,570.096,0.0
49141.0,STARLINK-3093,PAYLOAD,2023-01-24 10:43:50,14.98340932,0.0002621,70.0019,289.4145,273.1543,86.9317,0.00010186,1.123e-05,0.0,0 STARLINK-3093,1 49141U 21082M   23024.44710842  .00001123  00000-0  10186-3 0  9999,2 49141  70.0019 289.4145 0002621 273.1543  86.9317 14.98340932 76388,6950.159000000001,96.106,573.846,570.202,0.0
49141.0,STARLINK-3093,PAYLOAD,2023-01-24 20:20:39,14.98323773,0.000375,70.0011,288.4034,285.4204,74.6541,7.6833e-05,8.24e-06,0.0,0 STARLINK-3093,1 49141U 21082M   23024.84768195  .00000824  00000-0  76833-4 0  9996,2 49141  70.0011 288.4034 0003750 285.4204  74.6541 14.98323773 76444,6950.212,96.107,574.683,569.471,0.0
49141.0,STARLINK-3093,PAYLOAD,2023-01-25 04:21:19,14.98335197,0.0002998,70.0,287.5594,268.1132,91.9683,0.00011651,1.298e-05,0.0,0 STARLINK-3093,1 49141U 21082M   23025.18147160  .00001298  00000-0  11651-3 0  9999,2 49141  70.0000 287.5594 0002998 268.1132  91.9683 14.98335197 76491,6950.177,96.107,574.125,569.9580000000001,0.0
49141.0,STARLINK-3093,PAYLOAD,2023-01-25 10:45:51,14.98331479,0.0002712,70.001,286.8848,278.3212,81.7639,3.7352e-05,3.53e-06,0.0,0 STARLINK-3093,1 49141U 21082M   23025.44851667  .00000353  00000-0  37352-4 0  9990,2 49141  70.0010 286.8848 0002712 278.3212  81.7639 14.98331479 76534,6950.188,96.107,573.938,570.168,0.0
49141.0,STARLINK-3093,PAYLOAD,2023-01-25 18:46:32,14.98325289,0.0002869,70.001,286.0433,276.1326,83.9506,8.3291e-05,9.01e-06,0.0,0 STARLINK-3093,1 49141U 21082M   23025.78231957  .00000901  00000-0  83291-4 0  9993,2 49141  70.0010 286.0433 0002869 276.1326  83.9506 14.98325289 76585,6950.206999999999,96.107,574.066,570.078,0.0
49141.0,STARLINK-3093,PAYLOAD,2023-01-26 02:47:12,14.98337308,0.0002846,70.0003,285.2034,265.1819,94.9015,6.1365e-05,6.39e-06,0.0,0 STARLINK-3093,1 49141U 21082M   23026.11611171  .00000639  00000-0  61365-4 0  9997,2 49141  70.0003 285.2034 0002846 265.1819  94.9015 14.98337308 76633,6950.17,96.107,574.013,570.057,0.0
49141.0,STARLINK-3093,PAYLOAD,2023-01-27 02:49:12,14.98340189,0.0002887,70.0004,282.6778,269.9247,90.1581,0.00018886,2.162e-05,0.0,0 STARLINK-3093,1 49141U 21082M   23027.11750712  .00002162  00000-0  18886-3 0  9995,2 49141  70.0004 282.6778 0002887 269.9247  90.1581 14.98340189 76785,6950.161,96.106,574.033,570.02,0.0
49141.0,STARLINK-3093,PAYLOAD,2023-01-27 18:50:35,14.98289942,0.0002569999999999,70.0009,280.9949,268.4506,91.6358,0.0007872,9.302e-05,0.0,0 STARLINK-3093,1 49141U 21082M   23027.78513110  .00009302  00000-0  78720-3 0  9993,2 49141  70.0009 280.9949 0002570 268.4506  91.6358 14.98289942 76880,6950.316999999999,96.11,573.9680000000001,570.396,0.0
49141.0,STARLINK-3093,PAYLOAD,2023-01-27 20:26:43,14.98289232,0.0002569999999999,70.0009,280.8266,268.6846,91.4019,0.0007745,9.15e-05,0.0,0 STARLINK-3093,1 49141U 21082M   23027.85189205  .00009150  00000-0  77450-3 0  9995,2 49141  70.0009 280.8266 0002570 268.6846  91.4019 14.98289232 76895,6950.319,96.11,573.97,570.398,0.0
49141.0,STARLINK-3093,PAYLOAD,2023-01-28 02:51:14,14.98329534,0.0002698,70.0009,280.1526,272.8477,87.2373,1.1676e-05,4.6e-07,0.0,0 STARLINK-3093,1 49141U 21082M   23028.11891603  .00000046  00000-0  11676-4 0  9991,2 49141  70.0009 280.1526 0002698 272.8477  87.2373 14.98329534 76936,6950.194,96.107,573.934,570.184,0.0
49141.0,STARLINK-3093,PAYLOAD,2023-01-28 20:28:42,14.98334316,0.0002628,70.0009,278.3012,268.8945,91.1913,-1.8344e-05,-3.12e-06,0.0,0 STARLINK-3093,1 49141U 21082M   23028.85327243 -.00000312  00000-0 -18344-4 0  9993,2 49141  70.0009 278.3012 0002628 268.8945  91.1913 14.98334316 77044,6950.18,96.107,573.871,570.218,0.0
49141.0,STARLINK-3093,PAYLOAD,2023-01-29 02:53:14,14.98338986,0.0002731,70.0006,277.6279,274.2015,85.8832,-1.8231e-05,-3.11e-06,0.0,0 STARLINK-3093,1 49141U 21082M   23029.12030839 -.00000311  00000-0 -18231-4 0  9990,2 49141  70.0006 277.6279 0002731 274.2015  85.8832 14.98338986 77083,6950.165,96.106,573.928,570.132,0.0
49141.0,STARLINK-3093,PAYLOAD,2023-01-29 22:06:51,14.9832732,0.0002733,70.0002,275.6085,270.7089,89.3757,5.41e-05,5.53e-06,0.0,0 STARLINK-3093,1 49141U 21082M   23029.92143421  .00000553  00000-0  54100-4 0  9991,2 49141  70.0002 275.6085 0002733 270.7089  89.3757 14.98327320 77205,6950.201,96.107,573.966,570.167,0.0
49141.0,STARLINK-3093,PAYLOAD,2023-01-30 01:19:08,14.98326641,0.0002749,70.0001,275.272,270.1128,89.9716,4.2612e-05,4.15e-06,0.0,0 STARLINK-3093,1 49141U 21082M   23030.05495512  .00000415  00000-0  42612-4 0  9990,2 49141  70.0001 275.2720 0002749 270.1128  89.9716 14.98326641 77229,6950.203,96.107,573.979,570.158,0.0
49141.0,STARLINK-3093,PAYLOAD,2023-01-30 22:08:52,14.98333341,0.0002679,70.0001,273.0832,265.2547,94.8307,4.4606e-05,4.39e-06,0.0,0 STARLINK-3093,1 49141U 21082M   23030.92283018  .00000439  00000-0  44606-4 0  9993,2 49141  70.0001 273.0832 0002679 265.2547  94.8307 14.98333341 77351,6950.183,96.107,573.91,570.186,0.0
49141.0,STARLINK-3093,PAYLOAD,2023-01-31 01:21:08,14.98334564,0.0002657,70.0001,272.7466,265.3597,94.7259,5.8126e-05,6.01e-06,0.0,0 STARLINK-3093,1 49141U 21082M   23031.05634881  .00000601  00000-0  58126-4 0  9999,2 49141  70.0001 272.7466 0002657 265.3597  94.7259 14.98334564 77377,6950.179,96.107,573.89,570.197,0.0
49141.0,STARLINK-3093,PAYLOAD,2023-01-31 22:10:53,14.9833166,0.0002685,70.0,270.5586,266.661,93.4242,8.3256e-05,9.01e-06,0.0,0 STARLINK-3093,1 49141U 21082M   23031.92422936  .00000901  00000-0  83256-4 0  9996,2 49141  70.0000 270.5586 0002685 266.6610  93.4242 14.98331660 77503,6950.188,96.107,573.919,570.187,0.0
49141.0,STARLINK-3093,PAYLOAD,2023-02-01 02:59:17,14.98333147,0.0002745,69.9996,270.0534,267.5726,92.5119,8.405e-05,9.1e-06,0.0,0 STARLINK-3093,1 49141U 21082M   23032.12450804  .00000910  00000-0  84050-4 0  9997,2 49141  69.9996 270.0534 0002745 267.5726  92.5119 14.98333147 77535,6950.183,96.107,573.956,570.14,0.0
49141.0,STARLINK-3093,PAYLOAD,2023-02-02 01:25:10,14.98328009,0.0002694,69.9986,267.6971,268.4556,91.6294,-1.3876e-05,-2.59e-06,0.0,0 STARLINK-3093,1 49141U 21082M   23033.05915337 -.00000259  00000-0 -13876-4 0  9993,2 49141  69.9986 267.6971 0002694 268.4556  91.6294 14.98328009 77675,6950.199,96.107,573.936,570.192,0.0
